KUIPER-00044            
1 64505U 25134F   25258.10516658  .00017744  00000+0  23432-2 0  9997
2 64505  51.8986 303.0321 0014845  55.7522 304.4844 14.79994860 13883
KUIPER-00046            
1 64506U 25134G   25258.25003472 -.00013062  00000+0 -16888-2 0  9997
2 64506  51.8987 298.7530 0012710  66.5570  21.8681 14.79835510  5403
KUIPER-00047            
1 64507U 25134H   25257.09613591  .00031966  00000+0  91629-3 0  9996
2 64507  51.8630 292.9911 0012192  61.6828 298.5386 15.35546856 13931
KUIPER-00048            
1 64508U 25134J   25258.08839506  .00032781  00000+0  87017-3 0  9995
2 64508  51.8774 287.0316 0005710  42.9800 317.1632 15.37978766 14108
KUIPER-00049            
1 64509U 25134K   25258.25003472 -.01421495  00000+0 -78568-1 0  9996
2 64509  51.8775 288.1973 0008385  42.6334 284.1600 15.16410018  5028
KUIPER-00050            
1 64510U 25134L   25258.25003472 -.01008107  00000+0 -60989-1 0  9997
2 64510  51.8783 289.1938 0007926  73.8193 127.9013 15.13186613  3174
KUIPER-00051            
1 64511U 25134M   25258.25003472 -.00834035  00000+0 -39300-1 0  9997
2 64511  51.8838 287.7263 0007118  32.0095 118.0781 15.21761940  4975
KUIPER-00052            
1 64512U 25134N   25257.48078492  .00085752  00000+0  11544-2 0  9999
2 64512  51.8754 283.8081 0006623  54.0139 306.1470 15.57101268 14090
